[{"OBJECT_NAME":"STARLINK-30752","OBJECT_ID":"2023-166X","EPOCH":"2026-03-09T16:51:58.651488","MEAN_MOTION":15.30185387,"ECCENTRICITY":0.00010747,"INCLINATION":53.1596,"RA_OF_ASC_NODE":219.3766,"ARG_OF_PERICENTER":78.3116,"MEAN_ANOMALY":281.8005,"EPHEMERIS_TYPE":0,"CLASSIFICATION_TYPE":"U","NORAD_CAT_ID":58171,"ELEMENT_SET_NO":999,"REV_AT_EPOCH":13318,"BSTAR":5.7396905e-5,"MEAN_MOTION_DOT":1.34e-5,"MEAN_MOTION_DDOT":0},{"OBJECT_NAME":"OBJECT BE","OBJECT_ID":"2025-313BE","EPOCH":"2026-03-09T16:43:59.380320","MEAN_MOTION":15.29801687,"ECCENTRICITY":0.00072083,"INCLINATION":97.3989,"RA_OF_ASC_NODE":145.3568,"ARG_OF_PERICENTER":335.3714,"MEAN_ANOMALY":24.7181,"EPHEMERIS_TYPE":0,"CLASSIFICATION_TYPE":"U","NORAD_CAT_ID":67482,"ELEMENT_SET_NO":999,"REV_AT_EPOCH":797,"BSTAR":0.0026504328,"MEAN_MOTION_DOT":0.00077178,"MEAN_MOTION_DDOT":0}]
